ORBCOMM FM115           
1 41186U 15081H   24122.47026552  .00001038  00000+0  24654-3 0  9992
2 41186  46.9969 194.9267 0001435 296.5407  63.5332 14.60636371447542
ORBCOMM FM108           
1 41187U 15081J   24122.62881641  .00001362  00000+0  34037-3 0  9994
2 41187  47.0032 248.1975 0003326 228.2945 131.7655 14.56547749446768
ORBCOMM FM117           
1 41188U 15081K   24122.45736153  .00001347  00000+0  33699-3 0  9999
2 41188  46.9993 247.9006 0003871 235.5304 124.5215 14.56552033446786
ORBCOMM FM116           
1 41189U 15081L   24122.85826341  .00001258  00000+0  31706-3 0  9991
2 41189  47.0019 335.8323 0002184 317.1594  42.9120 14.56549929445654
